COSMOS 2433 (720)       
1 32275U 07052A   23027.18845046 -.00000066  00000+0  00000+0 0  9994
2 32275  66.0642 357.2435 0004882 269.5900 273.3339  2.13104108118737
COSMOS 2432 (719)       
1 32276U 07052B   23027.48934384 -.00000067  00000+0  00000+0 0  9993
2 32276  66.0795 357.3385 0012008 319.2249  42.2056  2.13103405118749
COSMOS 2434 (721)       
1 32393U 07065A   23026.39424404  .00000061  00000+0  00000+0 0  9996
2 32393  64.3533 233.8239 0004851  73.5846 110.3938  2.13103158117421
COSMOS 2436 (723)       
1 32395U 07065C   23027.39509219  .00000069  00000+0  00000+0 0  9995
2 32395  64.3615 233.8502 0017021   7.5578 359.9127  2.13102876117381
COSMOS 2456 (730)       
1 36111U 09070A   23027.34632818 -.00000021  00000+0  00000+0 0  9999
2 36111  64.4164 113.3638 0003141 298.0446  58.7471  2.13099122102101
COSMOS 2457 (733)       
1 36112U 09070B   23026.70927256 -.00000013  00000+0  00000+0 0  9993
2 36112  64.4002 113.2564 0005660 167.4512 189.6831  2.13101322102099
COSMOS 2460 (732)       
1 36402U 10007C   23027.42947948 -.00000067  00000+0  00000+0 0  9996
2 36402  65.9318 355.9882 0002692 294.6638 240.8773  2.13106380100462
COSMOS 2476 (744)       
1 37867U 11064A   23026.97149096 -.00000014  00000+0  00000+0 0  9995
2 37867  64.7012 114.8198 0022342 233.9792 102.6820  2.13101807 87448
COSMOS 2477 (745)       
1 37868U 11064B   23027.21319279 -.00000017  00000+0  00000+0 0  9999
2 37868  64.7083 114.8786 0019631 234.5979 105.4774  2.13101584 87408
COSMOS 2475 (743)       
1 37869U 11064C   23027.65059751 -.00000023  00000+0  00000+0 0  9991
2 37869  64.7161 114.8735 0023765 252.0840  21.7872  2.13101779 87422
COSMOS 2485 (747)       
1 39155U 13019A   23027.54546896 -.00000021  00000+0  00000+0 0  9990
2 39155  64.8629 115.2766 0022799 229.8570 231.5215  2.13101826 75937
COSMOS 2492 (754)       
1 39620U 14012A   23026.71491360 -.00000066  00000+0  00000+0 0  9993
2 39620  65.8165 355.6620 0015123 317.4452 261.0742  2.13103245 68869
COSMOS 2500 (755)       
1 40001U 14032A   23027.55607363 -.00000069  00000+0  00000+0 0  9998
2 40001  65.7559 355.4784 0006703 225.1716 136.6796  2.13102420 67107
COSMOS 2501 (702K)      
1 40315U 14075A   23027.14030365  .00000066  00000+0  00000+0 0  9996
2 40315  63.6587 233.3458 0017011 204.5776   7.3876  2.13101389 63490
COSMOS 2514 (751)       
1 41330U 16008A   23027.31340339 -.00000068  00000+0  00000+0 0  9999
2 41330  65.5551 355.1224 0010269 226.4589 133.4526  2.13102615 54268
COSMOS 2516 (753)       
1 41554U 16032A   23025.55724995  .00000058  00000+0  00000+0 0  9990
2 41554  63.8853 233.7396 0013934 212.0750 147.8864  2.13106403 51839
COSMOS 2522 (752)       
1 42939U 17055A   23026.65861840  .00000062  00000+0  00000+0 0  9992
2 42939  64.1194 234.1626 0005163 239.5661  98.4738  2.13102060 41600
COSMOS 2527 (756)       
1 43508U 18053A   23027.10316343 -.00000015  00000+0  00000+0 0  9997
2 43508  65.0246 115.3383 0008745 225.8874 125.1651  2.13102510 35902
COSMOS 2529 (757)       
1 43687U 18086A   23027.37390615  .00000068  00000+0  00000+0 0  9991
2 43687  64.3342 234.5145 0007139 272.3332 209.9285  2.13102125 32937
COSMOS 2534 (758)       
1 44299U 19030A   23027.20463630  .00000066  00000+0  00000+0 0  9999
2 44299  64.4058 234.4256 0010374 295.9584 190.8035  2.13101933 28571
COSMOS 2544 (759)       
1 44850U 19088A   23027.03487639 -.00000014  00000+0  16595+1 0  9992
2 44850  65.0093 115.1897 0012750 253.5726  88.3729  2.13102299 24331
COSMOS 2545 (760)       
1 45358U 20018A   23027.43972572 -.00000070  00000+0  00000+0 0  9995
2 45358  64.8938 355.5431 0011179 256.7943 244.9515  2.13102715 22305
COSMOS 2547 (705K)      
1 46805U 20075A   23027.12640128  .00000067  00000+0  00000+0 0  9996
2 46805  64.6321 233.9189 0005235 242.7658 232.4262  2.13103047 17540
COSMOS 2557 (706K)      
1 52984U 22075A   23027.37437509 -.00000069  00000+0  10000-3 0  9995
2 52984  64.8032 357.7281 0014025 283.7006 258.6475  2.13102055  4341
COSMOS 2559 (707K)      
1 54031U 22130A   23027.31462322 -.00000069  00000+0  00000+0 0  9992
2 54031  64.7741 357.8664 0006908 237.4934 304.2177  2.13101084  2329
COSMOS 2564 (761)       
1 54377U 22161A   23027.06198449  .00000066  00000+0  00000+0 0  9993
2 54377  64.7725 233.9344 0006567 210.3710 347.8547  2.13102159  1266
